[{"OBJECT_NAME":"SJ-11-08","OBJECT_ID":"2014-066A","EPOCH":"2026-03-09T22:53:00.595104","MEAN_MOTION":14.66034371,"ECCENTRICITY":0.0012045,"INCLINATION":98.3343,"RA_OF_ASC_NODE":212.2023,"ARG_OF_PERICENTER":177.4868,"MEAN_ANOMALY":182.6397,"EPHEMERIS_TYPE":0,"CLASSIFICATION_TYPE":"U","NORAD_CAT_ID":40286,"ELEMENT_SET_NO":999,"REV_AT_EPOCH":60667,"BSTAR":0.00021581711,"MEAN_MOTION_DOT":1.134e-5,"MEAN_MOTION_DDOT":0},{"OBJECT_NAME":"CZ-6A DEB","OBJECT_ID":"2022-151WZ","EPOCH":"2026-03-09T03:29:53.048832","MEAN_MOTION":14.7155064,"ECCENTRICITY":0.00816058,"INCLINATION":98.6279,"RA_OF_ASC_NODE":137.1567,"ARG_OF_PERICENTER":198.417,"MEAN_ANOMALY":161.4077,"EPHEMERIS_TYPE":0,"CLASSIFICATION_TYPE":"U","NORAD_CAT_ID":55232,"ELEMENT_SET_NO":999,"REV_AT_EPOCH":17064,"BSTAR":0.0030438598,"MEAN_MOTION_DOT":0.00019914,"MEAN_MOTION_DDOT":0}]
